{
    "links": {
        "self": "http://www.neowsapp.com/rest/v1/neo/3508137?api_key=iIulBulltgU6a56xZRHN4H3l9WmuAYTsLGpBGhQ2"
    },
    "id": "3508137",
    "neo_reference_id": "3508137",
    "name": "(2010 DF)",
    "designation": "2010 DF",
    "nasa_jpl_url": "http://ssd.jpl.nasa.gov/sbdb.cgi?sstr=3508137",
    "absolute_magnitude_h": 24.5,
    "estimated_diameter": {
        "kilometers": {
            "estimated_diameter_min": 0.0334622374,
            "estimated_diameter_max": 0.0748238376
        },
        "meters": {
            "estimated_diameter_min": 33.4622374455,
            "estimated_diameter_max": 74.8238376074
        },
        "miles": {
            "estimated_diameter_min": 0.0207924639,
            "estimated_diameter_max": 0.0464933628
        },
        "feet": {
            "estimated_diameter_min": 109.7842471007,
            "estimated_diameter_max": 245.4850393757
        }
    },
    "is_potentially_hazardous_asteroid": false,
    "close_approach_data": [
        {
            "close_approach_date": "2010-02-13",
            "close_approach_date_full": "2010-Feb-13 11:58",
            "epoch_date_close_approach": 1266062280000,
            "relative_velocity": {
                "kilometers_per_second": "10.7827982669",
                "kilometers_per_hour": "38818.0737608263",
                "miles_per_hour": "24120.0414432201"
            },
            "miss_distance": {
                "astronomical": "0.1372344418",
                "lunar": "53.3841978602",
                "kilometers": "20529980.183918966",
                "miles": "12756738.1484790908"
            },
            "orbiting_body": "Earth"
        }
    ],
    "orbital_data": {
        "orbit_id": "7",
        "orbit_determination_date": "2017-04-06 08:58:20",
        "first_observation_date": "2010-02-16",
        "last_observation_date": "2010-02-19",
        "data_arc_in_days": 3,
        "observations_used": 25,
        "orbit_uncertainty": "8",
        "minimum_orbit_intersection": ".132567",
        "jupiter_tisserand_invariant": "5.341",
        "epoch_osculation": "2455244.5",
        "eccentricity": ".04370277559300967",
        "semi_major_axis": "1.167445218932331",
        "inclination": "20.91455548406909",
        "ascending_node_longitude": "324.3521333259835",
        "orbital_period": "460.7371093871958",
        "perihelion_distance": "1.116424622512199",
        "perihelion_argument": "203.5524349960332",
        "aphelion_distance": "1.218465815352463",
        "perihelion_time": "2455270.514139613069",
        "mean_anomaly": "339.6736792632985",
        "mean_motion": ".7813566406205453",
        "equinox": "J2000",
        "orbit_class": {
            "orbit_class_type": "AMO",
            "orbit_class_description": "Near-Earth asteroid orbits similar to that of 1221 Amor",
            "orbit_class_range": "1.017 AU < q (perihelion) < 1.3 AU"
        }
    },
    "is_sentry_object": false
}